[{"OBJECT_NAME":"STARLINK-30114","OBJECT_ID":"2023-079D","EPOCH":"2026-03-09T22:00:01.999584","MEAN_MOTION":15.20507286,"ECCENTRICITY":0.00017524,"INCLINATION":43,"RA_OF_ASC_NODE":105.3808,"ARG_OF_PERICENTER":290.4549,"MEAN_ANOMALY":126.4056,"EPHEMERIS_TYPE":0,"CLASSIFICATION_TYPE":"U","NORAD_CAT_ID":56826,"ELEMENT_SET_NO":999,"REV_AT_EPOCH":578,"BSTAR":0.0506084,"MEAN_MOTION_DOT":0.01232425,"MEAN_MOTION_DDOT":0},{"OBJECT_NAME":"PSLV DEB","OBJECT_ID":"2001-049PR","EPOCH":"2026-03-09T15:06:31.993344","MEAN_MOTION":15.1271322,"ECCENTRICITY":0.0041907,"INCLINATION":98.4927,"RA_OF_ASC_NODE":1.3381,"ARG_OF_PERICENTER":112.6989,"MEAN_ANOMALY":247.8677,"EPHEMERIS_TYPE":0,"CLASSIFICATION_TYPE":"U","NORAD_CAT_ID":34221,"ELEMENT_SET_NO":999,"REV_AT_EPOCH":29932,"BSTAR":0.00024868,"MEAN_MOTION_DOT":4.366e-5,"MEAN_MOTION_DDOT":0}]
